STARLINK-1410
1 15705C 20035BA  21326.14547469  .00006302  00000-0  42227-3 0  3260
2 15705  53.0534 268.0999 0001816  64.3788  12.3211 15.06390915    18
